ICEYE-X2                
1 43800U 18099AU  26204.26648586  .00005864  00000+0  29035-3 0  9995
2 43800  97.4342 257.4764 0010810 166.8009 193.3510 15.18110013418298
ICEYE-X4                
1 44390U 19038D   26204.24159209  .00014025  00000+0  48387-3 0  9991
2 44390  97.8751 239.2906 0013681 170.3873 189.7631 15.30017128387313
ICEYE-X7                
1 46496U 20068L   26204.26383105  .00012001  00000+0  38795-3 0  9995
2 46496  97.7511 172.4531 0007010 181.9364 178.1851 15.32223669320313
ICEYE-X6                
1 46497U 20068M   26204.23612287  .00002399  00000+0  17527-3 0  9998
2 46497  98.0995 199.6387 0006396 345.5344  14.5696 15.04696037318652
ICEYE-X21               
1 55049U 23001AS  26175.21618542  .01585954  23968-5  60214-3 0  9995
2 55049  97.3001 262.6152 0012377 285.9702  74.0225 16.24069885194757
ICEYE-X25               
1 56963U 23084AH  26204.25525058  .00031386  00000+0  34392-3 0  9996
2 56963  97.5914 353.0845 0004718 159.8304 200.3141 15.63202595173600
ICEYE-X31               
1 58288U 23174AJ  26204.31951891  .00018725  00000+0  54644-3 0  9997
2 58288  97.3765 280.0744 0003403 164.5676 195.5672 15.35378971150291
ICEYE-X34               
1 58294U 23174AQ  26204.21305870  .00196554  00000+0  13845-2 0  9997
2 58294  97.3842 297.3522 0002483 228.8045 131.3006 15.73512116151394
ICEYE-X35               
1 58302U 23174AY  26204.29649245  .00055988  00000+0  80624-3 0  9997
2 58302  97.3777 289.9531 0006887  80.1918 280.0114 15.55836864150950
ICEYE-X38               
1 59100U 24043C   26204.29334196  .00005541  00000+0  31652-3 0  9993
2 59100  97.8441 349.0496 0001669 351.7081   8.4121 15.13142333117137
ICEYE-X37               
1 59102U 24043E   26204.18695424  .00003775  00000+0  26066-3 0  9997
2 59102  97.8354 341.7671 0013927 244.1990 115.7800 15.06334805130501
ICEYE-X36               
1 59103U 24043F   26204.30212768  .00003493  00000+0  23582-3 0  9995
2 59103  97.8407 343.0323 0005954 182.6472 177.4724 15.07279422130584
ICEYE-X43               
1 60539U 24149BZ  26204.19102208  .00000960  00000+0  82407-4 0  9999
2 60539  97.6773 280.6715 0006404 310.7752  49.2915 14.99783035105513
ICEYE-X39               
1 60546U 24149CG  26204.16594167  .00003353  00000+0  27346-3 0  9992
2 60546  97.6804 280.7085 0006624  23.6608 336.4919 15.00117787105514
ICEYE-X33               
1 60548U 24149CJ  26203.16998232  .00003550  00000+0  28336-3 0  9993
2 60548  97.7381 282.1399 0001845  65.2412 294.9003 15.00927945105456
