{"fetched_at":"2026-07-23T17:55:35.855Z","source":"https://celestrak.org/NORAD/elements/gp.php?NAME=ICEYE&FORMAT=JSON","constellation":"iceye","records":[{"OBJECT_NAME":"ICEYE-X2","OBJECT_ID":"2018-099AU","EPOCH":"2026-07-23T06:23:44.378304","CLASSIFICATION_TYPE":"U","MEAN_MOTION":15.18110013,"ECCENTRICITY":0.00108108,"INCLINATION":97.4342,"RA_OF_ASC_NODE":257.4764,"ARG_OF_PERICENTER":166.8009,"MEAN_ANOMALY":193.351,"EPHEMERIS_TYPE":0,"NORAD_CAT_ID":43800,"ELEMENT_SET_NO":999,"REV_AT_EPOCH":41829,"BSTAR":0.00029034504,"MEAN_MOTION_DOT":0.00005864,"MEAN_MOTION_DDOT":0},{"OBJECT_NAME":"ICEYE-X4","OBJECT_ID":"2019-038D","EPOCH":"2026-07-23T05:47:53.556576","CLASSIFICATION_TYPE":"U","MEAN_MOTION":15.30017128,"ECCENTRICITY":0.00136818,"INCLINATION":97.8751,"RA_OF_ASC_NODE":239.2906,"ARG_OF_PERICENTER":170.3873,"MEAN_ANOMALY":189.7631,"EPHEMERIS_TYPE":0,"NORAD_CAT_ID":44390,"ELEMENT_SET_NO":999,"REV_AT_EPOCH":38731,"BSTAR":0.00048386771,"MEAN_MOTION_DOT":0.00014025,"MEAN_MOTION_DDOT":0},{"OBJECT_NAME":"ICEYE-X7","OBJECT_ID":"2020-068L","EPOCH":"2026-07-23T06:19:55.002720","CLASSIFICATION_TYPE":"U","MEAN_MOTION":15.32223669,"ECCENTRICITY":0.00070103,"INCLINATION":97.7511,"RA_OF_ASC_NODE":172.4531,"ARG_OF_PERICENTER":181.9364,"MEAN_ANOMALY":178.1851,"EPHEMERIS_TYPE":0,"NORAD_CAT_ID":46496,"ELEMENT_SET_NO":999,"REV_AT_EPOCH":32031,"BSTAR":0.00038795162,"MEAN_MOTION_DOT":0.00012001,"MEAN_MOTION_DDOT":0},{"OBJECT_NAME":"ICEYE-X6","OBJECT_ID":"2020-068M","EPOCH":"2026-07-23T05:40:01.015968","CLASSIFICATION_TYPE":"U","MEAN_MOTION":15.04696037,"ECCENTRICITY":0.00063968,"INCLINATION":98.0995,"RA_OF_ASC_NODE":199.6387,"ARG_OF_PERICENTER":345.5344,"MEAN_ANOMALY":14.5696,"EPHEMERIS_TYPE":0,"NORAD_CAT_ID":46497,"ELEMENT_SET_NO":999,"REV_AT_EPOCH":31865,"BSTAR":0.00017526611,"MEAN_MOTION_DOT":0.00002399,"MEAN_MOTION_DDOT":0},{"OBJECT_NAME":"ICEYE-X21","OBJECT_ID":"2023-001AS","EPOCH":"2026-06-24T05:11:18.420288","CLASSIFICATION_TYPE":"U","MEAN_MOTION":16.24069885,"ECCENTRICITY":0.00123774,"INCLINATION":97.3001,"RA_OF_ASC_NODE":262.6152,"ARG_OF_PERICENTER":285.9702,"MEAN_ANOMALY":74.0225,"EPHEMERIS_TYPE":0,"NORAD_CAT_ID":55049,"ELEMENT_SET_NO":999,"REV_AT_EPOCH":19475,"BSTAR":0.000602142,"MEAN_MOTION_DOT":0.01585954,"MEAN_MOTION_DDOT":0.000002396838},{"OBJECT_NAME":"ICEYE-X25","OBJECT_ID":"2023-084AH","EPOCH":"2026-07-23T06:07:33.650112","CLASSIFICATION_TYPE":"U","MEAN_MOTION":15.63202595,"ECCENTRICITY":0.0004718,"INCLINATION":97.5914,"RA_OF_ASC_NODE":353.0845,"ARG_OF_PERICENTER":159.8304,"MEAN_ANOMALY":200.3141,"EPHEMERIS_TYPE":0,"NORAD_CAT_ID":56963,"ELEMENT_SET_NO":999,"REV_AT_EPOCH":17360,"BSTAR":0.00034391641,"MEAN_MOTION_DOT":0.00031386,"MEAN_MOTION_DDOT":0},{"OBJECT_NAME":"ICEYE-X31","OBJECT_ID":"2023-174AJ","EPOCH":"2026-07-23T07:40:06.433824","CLASSIFICATION_TYPE":"U","MEAN_MOTION":15.35378971,"ECCENTRICITY":0.00034036,"INCLINATION":97.3765,"RA_OF_ASC_NODE":280.0744,"ARG_OF_PERICENTER":164.5676,"MEAN_ANOMALY":195.5672,"EPHEMERIS_TYPE":0,"NORAD_CAT_ID":58288,"ELEMENT_SET_NO":999,"REV_AT_EPOCH":15029,"BSTAR":0.00054644062,"MEAN_MOTION_DOT":0.00018725,"MEAN_MOTION_DDOT":0},{"OBJECT_NAME":"ICEYE-X34","OBJECT_ID":"2023-174AQ","EPOCH":"2026-07-23T05:06:48.271680","CLASSIFICATION_TYPE":"U","MEAN_MOTION":15.73512116,"ECCENTRICITY":0.00024837,"INCLINATION":97.3842,"RA_OF_ASC_NODE":297.3522,"ARG_OF_PERICENTER":228.8045,"MEAN_ANOMALY":131.3006,"EPHEMERIS_TYPE":0,"NORAD_CAT_ID":58294,"ELEMENT_SET_NO":999,"REV_AT_EPOCH":15139,"BSTAR":0.0013844948,"MEAN_MOTION_DOT":0.00196554,"MEAN_MOTION_DDOT":0},{"OBJECT_NAME":"ICEYE-X35","OBJECT_ID":"2023-174AY","EPOCH":"2026-07-23T07:06:56.947680","CLASSIFICATION_TYPE":"U","MEAN_MOTION":15.55836864,"ECCENTRICITY":0.00068877,"INCLINATION":97.3777,"RA_OF_ASC_NODE":289.9531,"ARG_OF_PERICENTER":80.1918,"MEAN_ANOMALY":280.0114,"EPHEMERIS_TYPE":0,"NORAD_CAT_ID":58302,"ELEMENT_SET_NO":999,"REV_AT_EPOCH":15095,"BSTAR":0.00080623858,"MEAN_MOTION_DOT":0.00055988,"MEAN_MOTION_DDOT":0},{"OBJECT_NAME":"ICEYE-X38","OBJECT_ID":"2024-043C","EPOCH":"2026-07-23T07:02:24.745344","CLASSIFICATION_TYPE":"U","MEAN_MOTION":15.13142333,"ECCENTRICITY":0.00016695,"INCLINATION":97.8441,"RA_OF_ASC_NODE":349.0496,"ARG_OF_PERICENTER":351.7081,"MEAN_ANOMALY":8.4121,"EPHEMERIS_TYPE":0,"NORAD_CAT_ID":59100,"ELEMENT_SET_NO":999,"REV_AT_EPOCH":11713,"BSTAR":0.00031651719,"MEAN_MOTION_DOT":0.00005541,"MEAN_MOTION_DDOT":0},{"OBJECT_NAME":"ICEYE-X37","OBJECT_ID":"2024-043E","EPOCH":"2026-07-23T04:29:12.846336","CLASSIFICATION_TYPE":"U","MEAN_MOTION":15.06334805,"ECCENTRICITY":0.0013927,"INCLINATION":97.8354,"RA_OF_ASC_NODE":341.7671,"ARG_OF_PERICENTER":244.199,"MEAN_ANOMALY":115.78,"EPHEMERIS_TYPE":0,"NORAD_CAT_ID":59102,"ELEMENT_SET_NO":999,"REV_AT_EPOCH":13050,"BSTAR":0.00026066197,"MEAN_MOTION_DOT":0.00003775,"MEAN_MOTION_DDOT":0},{"OBJECT_NAME":"ICEYE-X36","OBJECT_ID":"2024-043F","EPOCH":"2026-07-23T07:15:03.831552","CLASSIFICATION_TYPE":"U","MEAN_MOTION":15.07279422,"ECCENTRICITY":0.0005954,"INCLINATION":97.8407,"RA_OF_ASC_NODE":343.0323,"ARG_OF_PERICENTER":182.6472,"MEAN_ANOMALY":177.4724,"EPHEMERIS_TYPE":0,"NORAD_CAT_ID":59103,"ELEMENT_SET_NO":999,"REV_AT_EPOCH":13058,"BSTAR":0.00023582149,"MEAN_MOTION_DOT":0.00003493,"MEAN_MOTION_DDOT":0},{"OBJECT_NAME":"ICEYE-X43","OBJECT_ID":"2024-149BZ","EPOCH":"2026-07-23T04:35:04.307712","CLASSIFICATION_TYPE":"U","MEAN_MOTION":14.99783035,"ECCENTRICITY":0.00064042,"INCLINATION":97.6773,"RA_OF_ASC_NODE":280.6715,"ARG_OF_PERICENTER":310.7752,"MEAN_ANOMALY":49.2915,"EPHEMERIS_TYPE":0,"NORAD_CAT_ID":60539,"ELEMENT_SET_NO":999,"REV_AT_EPOCH":10551,"BSTAR":0.00008240742,"MEAN_MOTION_DOT":0.0000096,"MEAN_MOTION_DDOT":0},{"OBJECT_NAME":"ICEYE-X39","OBJECT_ID":"2024-149CG","EPOCH":"2026-07-23T03:58:57.360288","CLASSIFICATION_TYPE":"U","MEAN_MOTION":15.00117787,"ECCENTRICITY":0.00066246,"INCLINATION":97.6804,"RA_OF_ASC_NODE":280.7085,"ARG_OF_PERICENTER":23.6608,"MEAN_ANOMALY":336.4919,"EPHEMERIS_TYPE":0,"NORAD_CAT_ID":60546,"ELEMENT_SET_NO":999,"REV_AT_EPOCH":10551,"BSTAR":0.00027345779,"MEAN_MOTION_DOT":0.00003353,"MEAN_MOTION_DDOT":0},{"OBJECT_NAME":"ICEYE-X33","OBJECT_ID":"2024-149CJ","EPOCH":"2026-07-22T04:04:46.472448","CLASSIFICATION_TYPE":"U","MEAN_MOTION":15.00927945,"ECCENTRICITY":0.00018452,"INCLINATION":97.7381,"RA_OF_ASC_NODE":282.1399,"ARG_OF_PERICENTER":65.2412,"MEAN_ANOMALY":294.9003,"EPHEMERIS_TYPE":0,"NORAD_CAT_ID":60548,"ELEMENT_SET_NO":999,"REV_AT_EPOCH":10545,"BSTAR":0.00028335812,"MEAN_MOTION_DOT":0.0000355,"MEAN_MOTION_DDOT":0}]}
